1 29155U 06018A   11029.49413492 -.00000260  00000-0  10000-3 0  4613
2 29155 000.4032 078.6753 0002394 337.4047 175.3436 01.00268261 17187